{"fetched_at":"2026-05-01T13:15:58Z","count":100,"tles":[{"name":"STARLINK-33630","line1":"1 63477U 25070T   26120.90733481  .00029689  00000+0  10830-2 0  9994","line2":"2 63477  42.9983 321.3180 0001136 271.7293  88.3429 15.27611883 61007","category":"Starlink"},{"name":"UNKNOWN","line1":"1 81696U          23361.48586238  .00038318  00000+0  20061-2 0  9992","line2":"2 81696  97.4094 250.0382 0132420 108.0356 253.5353 15.08345337406544","category":"Other"},{"name":"USA 75 (DSP 16)","line1":"1 21805U 91080B   26120.38392054 -.00000078  00000+0  00000+0 0  9993","line2":"2 21805  14.0290 345.8524 0004465  77.3433 127.0685  0.99189151 25235","category":"Military"},{"name":"ARIANE 2 DEB","line1":"1 33560U 89006BC  26067.61982699 -.00000004  00000+0  84041-2 0  9994","line2":"2 33560  10.8858  59.1096 7066532  66.4804   9.2399  2.25164878178591","category":"Other"}]}